NORAD_CAT_ID,OBJECT_NAME,OBJECT_TYPE,EPOCH,MEAN_MOTION,ECCENTRICITY,INCLINATION,RA_OF_ASC_NODE,ARG_OF_PERICENTER,MEAN_ANOMALY,BSTAR,MEAN_MOTION_DOT,MEAN_MOTION_DDOT,TLE_LINE0,TLE_LINE1,TLE_LINE2,SEMIMAJOR_AXIS,PERIOD,APOGEE,PERIGEE,DECAYED
52344.0,STARLINK-3851,PAYLOAD,2023-05-01 11:59:43,15.08840233,0.0001034,53.2151,202.2498,78.9266,281.1842,4.8127e-05,4.78e-06,0.0,0 STARLINK-3851,1 52344U 22045P   23121.49980644  .00000478  00000-0  48127-4 0  9999,2 52344  53.2151 202.2498 0001034  78.9266 281.1842 15.08840233 58294,6917.88,95.438,540.46,539.029,0.0
52344.0,STARLINK-3851,PAYLOAD,2023-05-02 05:28:57,15.0884605,9.57e-05,53.2155,198.9772,109.3717,250.7379,5.8328e-05,6.41e-06,0.0,0 STARLINK-3851,1 52344U 22045P   23122.22844352  .00000641  00000-0  58328-4 0  9992,2 52344  53.2155 198.9772 0000957 109.3717 250.7379 15.08846050 58400,6917.862,95.437,540.389,539.065,0.0
52344.0,STARLINK-3851,PAYLOAD,2023-05-02 11:50:29,15.08851351,9.32e-05,53.2156,197.7884,89.7596,270.3503,0.00021791,3.183e-05,0.0,0 STARLINK-3851,1 52344U 22045P   23122.49340104  .00003183  00000-0  21791-3 0  9994,2 52344  53.2156 197.7884 0000932  89.7596 270.3503 15.08851351 58442,6917.846,95.437,540.355,539.066,0.0
52344.0,STARLINK-3851,PAYLOAD,2023-05-02 21:22:48,15.0884465,9.45e-05,53.2163,196.0054,78.0187,282.0911,0.00015481,2.177e-05,0.0,0 STARLINK-3851,1 52344U 22045P   23122.89084435  .00002177  00000-0  15481-3 0  9991,2 52344  53.2163 196.0054 0000945  78.0187 282.0911 15.08844650 58506,6917.866,95.437,540.385,539.077,0.0
52344.0,STARLINK-3851,PAYLOAD,2023-05-03 05:19:45,15.08833271,0.0001056,53.215,194.5189,95.4708,264.6405,-4.3049e-05,-9.73e-06,0.0,0 STARLINK-3851,1 52344U 22045P   23123.22204882 -.00000973  00000-0 -43049-4 0  9995,2 52344  53.2150 194.5189 0001056  95.4708 264.6405 15.08833271 58556,6917.901,95.438,540.496,539.035,0.0
52344.0,STARLINK-3851,PAYLOAD,2023-05-03 11:41:17,15.08833937,9.73e-05,53.2154,193.3292,93.2812,266.8291,5.5668e-05,5.98e-06,0.0,0 STARLINK-3851,1 52344U 22045P   23123.48701198  .00000598  00000-0  55668-4 0  9996,2 52344  53.2154 193.3292 0000973  93.2812 266.8291 15.08833937 58591,6917.899,95.438,540.437,539.091,0.0
52344.0,STARLINK-3851,PAYLOAD,2023-05-04 11:32:04,15.08840979,0.0001037,53.2161,188.8682,101.0065,259.1044,6.3574e-05,7.24e-06,0.0,0 STARLINK-3851,1 52344U 22045P   23124.48060794  .00000724  00000-0  63574-4 0  9993,2 52344  53.2161 188.8682 0001037 101.0065 259.1044 15.08840979 58743,6917.877,95.437,540.46,539.025,0.0
52344.0,STARLINK-3851,PAYLOAD,2023-05-04 21:04:23,15.08841808,0.0001022,53.2158,187.0846,105.2382,254.8723,-2.6963e-05,-7.17e-06,0.0,0 STARLINK-3851,1 52344U 22045P   23124.87804950 -.00000717  00000-0 -26963-4 0  9991,2 52344  53.2158 187.0846 0001022 105.2382 254.8723 15.08841808 58809,6917.875,95.437,540.447,539.033,0.0
52344.0,STARLINK-3851,PAYLOAD,2023-05-05 09:47:29,15.08833356,9.81e-05,53.216,184.7051,94.9463,265.1641,6.7383e-05,7.85e-06,0.0,0 STARLINK-3851,1 52344U 22045P   23125.40797592  .00000785  00000-0  67383-4 0  9998,2 52344  53.2160 184.7051 0000981  94.9463 265.1641 15.08833356 58882,6917.901,95.438,540.444,539.087,0.0
52344.0,STARLINK-3851,PAYLOAD,2023-05-05 12:58:15,15.0883702,9.85e-05,53.2159,184.1102,91.155,268.9555,9.632e-05,1.245e-05,0.0,0 STARLINK-3851,1 52344U 22045P   23125.54045341  .00001245  00000-0  96320-4 0  9996,2 52344  53.2159 184.1102 0000985  91.1550 268.9555 15.08837020 58901,6917.889,95.438,540.436,539.073,0.0
52344.0,STARLINK-3851,PAYLOAD,2023-05-06 11:13:38,15.08846661,0.0001066,53.2157,179.9466,91.3925,268.7189,0.00012507,1.704e-05,0.0,0 STARLINK-3851,1 52344U 22045P   23126.46780921  .00001704  00000-0  12507-3 0  9992,2 52344  53.2157 179.9466 0001066  91.3925 268.7189 15.08846661 59041,6917.86,95.437,540.462,538.988,0.0
52344.0,STARLINK-3851,PAYLOAD,2023-05-07 03:07:30,15.08843964,0.0001212,53.2148,176.9718,84.1452,275.9679,0.00014909,2.086e-05,0.0,0 STARLINK-3851,1 52344U 22045P   23127.13021011  .00002086  00000-0  14909-3 0  9997,2 52344  53.2148 176.9718 0001212  84.1452 275.9679 15.08843964 59144,6917.868,95.437,540.572,538.895,0.0
52344.0,STARLINK-3851,PAYLOAD,2023-05-07 09:29:03,15.08832587,0.0001053,53.2148,175.7805,91.9572,268.1541,0.00021199,3.087e-05,0.0,0 STARLINK-3851,1 52344U 22045P   23127.39517662  .00003087  00000-0  21199-3 0  9998,2 52344  53.2148 175.7805 0001053  91.9572 268.1541 15.08832587 59185,6917.903,95.438,540.497,539.04,0.0
52344.0,STARLINK-3851,PAYLOAD,2023-05-07 20:36:45,15.08835834,0.0001124,53.2153,173.7008,83.8427,276.2693,1.7988e-05,-2e-08,0.0,0 STARLINK-3851,1 52344U 22045P   23127.85885893 -.00000002  00000-0  17988-4 0  9990,2 52344  53.2153 173.7008 0001124  83.8427 276.2693 15.08835834 59256,6917.893,95.438,540.536,538.981,0.0
52344.0,STARLINK-3851,PAYLOAD,2023-05-08 09:19:49,15.08843283,0.0001036,53.2153,171.3214,86.8245,273.2866,5.7137e-05,6.22e-06,0.0,0 STARLINK-3851,1 52344U 22045P   23128.38877277  .00000622  00000-0  57137-4 0  9993,2 52344  53.2153 171.3214 0001036  86.8245 273.2866 15.08843283 59337,6917.87,95.437,540.452,539.019,0.0
52344.0,STARLINK-3851,PAYLOAD,2023-05-09 12:21:22,15.0884367,0.0001005,53.2159,166.2685,80.0898,280.0207,0.00016408,2.325e-05,0.0,0 STARLINK-3851,1 52344U 22045P   23129.51484872  .00002325  00000-0  16408-3 0  9991,2 52344  53.2159 166.2685 0001005  80.0898 280.0207 15.08843670 59508,6917.869,95.437,540.429,539.039,0.0
52344.0,STARLINK-3851,PAYLOAD,2023-05-10 09:01:24,15.08836802,0.0001107,53.2161,162.4032,84.2555,275.8563,3.221e-05,2.25e-06,0.0,0 STARLINK-3851,1 52344U 22045P   23130.37597845  .00000225  00000-0  32210-4 0  9999,2 52344  53.2161 162.4032 0001107  84.2555 275.8563 15.08836802 59634,6917.89,95.438,540.521,538.989,0.0
52344.0,STARLINK-3851,PAYLOAD,2023-05-11 07:16:48,15.08843658,0.000118,53.2168,158.243,100.6579,259.4546,3.3004e-05,2.38e-06,0.0,0 STARLINK-3851,1 52344U 22045P   23131.30333346  .00000238  00000-0  33004-4 0  9993,2 52344  53.2168 158.2430 0001180 100.6579 259.4546 15.08843658 59777,6917.869,95.437,540.551,538.918,0.0
52344.0,STARLINK-3851,PAYLOAD,2023-05-11 18:24:30,15.08842556,9.92e-05,53.2154,156.1557,89.2644,270.8462,1.0374e-05,-1.23e-06,0.0,0 STARLINK-3851,1 52344U 22045P   23131.76701399 -.00000123  00000-0  10374-4 0  9999,2 52344  53.2154 156.1557 0000992  89.2644 270.8462 15.08842556 59842,6917.873,95.437,540.424,539.051,0.0
52344.0,STARLINK-3851,PAYLOAD,2023-05-11 23:10:39,15.08834072,0.0001156,53.2163,155.2689,108.139,251.9728,5.318e-05,5.59e-06,0.0,0 STARLINK-3851,1 52344U 22045P   23131.96573922  .00000559  00000-0  53180-4 0  9994,2 52344  53.2163 155.2689 0001156 108.1390 251.9728 15.08834072 59872,6917.899,95.438,540.563,538.964,0.0
52344.0,STARLINK-3851,PAYLOAD,2023-05-12 07:07:35,15.08833683,0.0001154,53.216,153.7809,107.7593,252.3525,2.5568e-05,1.19e-06,0.0,0 STARLINK-3851,1 52344U 22045P   23132.29694165  .00000119  00000-0  25568-4 0  9995,2 52344  53.2160 153.7809 0001154 107.7593 252.3525 15.08833683 59927,6917.9,95.438,540.563,538.966,0.0
52344.0,STARLINK-3851,PAYLOAD,2023-05-13 06:58:22,15.08841479,0.0001162,53.216,149.3201,107.013,253.099,5.8891e-05,6.5e-06,0.0,0 STARLINK-3851,1 52344U 22045P   23133.29053718  .00000650  00000-0  58891-4 0  9994,2 52344  53.2160 149.3201 0001162 107.0130 253.0990 15.08841479 60077,6917.876,95.437,540.545,538.937,0.0
52344.0,STARLINK-3851,PAYLOAD,2023-05-13 08:33:45,15.08842039,0.000114,53.2159,149.0228,104.8075,255.3044,6.2355e-05,7.05e-06,0.0,0 STARLINK-3851,1 52344U 22045P   23133.35677678  .00000705  00000-0  62355-4 0  9999,2 52344  53.2159 149.0228 0001140 104.8075 255.3044 15.08842039 60089,6917.874,95.437,540.528,538.951,0.0
52344.0,STARLINK-3851,PAYLOAD,2023-05-13 18:06:03,15.08856402,0.0001042,53.2157,147.2356,98.738,261.373,-0.00019758,-3.432e-05,0.0,0 STARLINK-3851,1 52344U 22045P   23133.75421265 -.00003432  00000-0 -19758-3 0  9992,2 52344  53.2157 147.2356 0001042  98.7380 261.3730 15.08856402 60145,6917.83,95.437,540.416,538.974,0.0
52344.0,STARLINK-3851,PAYLOAD,2023-05-14 06:49:09,15.08834854,0.0001073,53.2154,144.8562,92.4893,267.6222,7.0476e-05,8.34e-06,0.0,0 STARLINK-3851,1 52344U 22045P   23134.28414287  .00000834  00000-0  70476-4 0  9993,2 52344  53.2154 144.8562 0001073  92.4893 267.6222 15.08834854 60229,6917.896,95.438,540.503,539.019,0.0
52344.0,STARLINK-3851,PAYLOAD,2023-05-14 09:59:56,15.08836084,0.0001096,53.2156,144.2617,91.5384,268.5734,7.8606e-05,9.63e-06,0.0,0 STARLINK-3851,1 52344U 22045P   23134.41662243  .00000963  00000-0  78606-4 0  9991,2 52344  53.2156 144.2617 0001096  91.5384 268.5734 15.08836084 60243,6917.892,95.438,540.516,538.999,0.0
52344.0,STARLINK-3851,PAYLOAD,2023-05-14 17:56:51,15.0883726,0.0001116,53.2158,142.775,90.7319,269.3801,3.8693e-05,3.28e-06,0.0,0 STARLINK-3851,1 52344U 22045P   23134.74782311  .00000328  00000-0  38693-4 0  9993,2 52344  53.2158 142.7750 0001116  90.7319 269.3801 15.08837260 60294,6917.889,95.438,540.526,538.982,0.0
52344.0,STARLINK-3851,PAYLOAD,2023-05-15 06:39:56,15.08840087,0.0001126,53.2156,140.3963,89.5619,270.5502,3.7191e-05,3.04e-06,0.0,0 STARLINK-3851,1 52344U 22045P   23135.27774177  .00000304  00000-0  37191-4 0  9999,2 52344  53.2156 140.3963 0001126  89.5619 270.5502 15.08840087 60374,6917.88,95.438,540.524,538.966,0.0
52344.0,STARLINK-3851,PAYLOAD,2023-05-15 17:47:38,15.08841331,0.0001128,53.2157,138.3147,88.818,271.2942,5.4219e-05,5.75e-06,0.0,0 STARLINK-3851,1 52344U 22045P   23135.74142021  .00000575  00000-0  54219-4 0  9998,2 52344  53.2157 138.3147 0001128  88.8180 271.2942 15.08841331 60440,6917.876,95.437,540.522,538.961,0.0
52344.0,STARLINK-3851,PAYLOAD,2023-05-16 06:30:43,15.08842701,0.0001119,53.2158,135.9359,88.0453,272.0667,8.9422e-05,1.136e-05,0.0,0 STARLINK-3851,1 52344U 22045P   23136.27133844  .00001136  00000-0  89422-4 0  9998,2 52344  53.2158 135.9359 0001119  88.0453 272.0667 15.08842701 60528,6917.872,95.437,540.511,538.963,0.0
